ONEWEB-0228             
1 48780U 21045P   24017.11602131  .00000000  00000+0 -34684-4 0  9997
2 48780  87.8971  74.7681 0001920 104.2772 255.8572 13.15550580129488
